{
"type": "FeatureCollection",
"name": "Marlborough_2026-2027 - Captured_Area_New",
"crs": { "type": "name", "properties": { "name": "urn:ogc:def:crs:OGC:1.3:CRS84" } },
"xy_coordinate_resolution": 1e-15,
"features": [
{ "type": "Feature", "properties": { "Name": "Wairau Awatere Rural", "Project": "PGRM3353", "layer": "RuralArea", "path": "Y:/Projects/MARLBOROUGH DISTRICT COUNCIL/PGRM3353 – Marlborough Wairau Awatere 2026-27 Rural Orthos/07_Client_AOIs/GIS_Shapefiles/RuralArea.shp", "SN_No": null, "Company_Name": null, "Description": null, "Area": 2925.8596259478909, "Percentage_Coverage": 33.4 }, "geometry": { "type": "MultiPolygon", "coordinates": [ [ [ [ 174.092567331775427, -41.492430587729935 ], [ 174.121313881787216, -41.492153901675977 ], [ 174.121873494008838, -41.524574463791794 ], [ 174.150633975891481, -41.524290273212827 ], [ 174.151208867299346, -41.556710323727998 ], [ 174.17998329254479, -41.55641861231868 ], [ 174.180573511136998, -41.588838142406921 ], [ 174.181164697368359, -41.621257482185079 ], [ 174.181756853067469, -41.65367663161517 ], [ 174.182349980067784, -41.686095590659463 ], [ 174.211181653998949, -41.685795324184774 ], [ 174.211790232769829, -41.718213752827445 ], [ 174.240635941451245, -41.717905907327577 ], [ 174.269481195698461, -41.717590823100764 ], [ 174.283903590328691, -41.717429661787676 ], [ 174.298325984958922, -41.717268500474589 ], [ 174.298652524713475, -41.733477084347236 ], [ 174.298979064468057, -41.74968566821989 ], [ 174.299633215967788, -41.782102644063507 ], [ 174.270759403333528, -41.782425696833975 ], [ 174.270759403333528, -41.782425696833982 ], [ 174.271400081447126, -41.814842846353535 ], [ 174.242511253762956, -41.815159001745343 ], [ 174.243138411888651, -41.84757631741514 ], [ 174.214234554133299, -41.847885559032392 ], [ 174.214234554133299, -41.847885559032392 ], [ 174.214848145551912, -41.880303033304173 ], [ 174.185929242713172, -41.880605344732935 ], [ 174.157009902417713, -41.88090037575752 ], [ 174.157595257662422, -41.913318334843929 ], [ 174.131286091052885, -41.913580273516665 ], [ 174.128660867123983, -41.913606410706102 ], [ 174.129232537032124, -41.946024505321425 ], [ 174.116771061061428, -41.94614550841947 ], [ 174.10028308129634, -41.94630560956935 ], [ 174.10084101876447, -41.97872383208049 ], [ 174.071876482886609, -41.978997948244185 ], [ 174.042911549920916, -41.979264758085918 ], [ 174.042673732359788, -41.964679236616369 ], [ 174.042382959429887, -41.946845924428168 ], [ 174.019304281827118, -41.947052559725783 ], [ 174.024609976913496, -41.941744199632396 ], [ 174.025821704096614, -41.940485520517718 ], [ 174.023068418938493, -41.934492174744697 ], [ 174.02321263922002, -41.934455255714646 ], [ 174.017829071352395, -41.922846582202681 ], [ 174.01823901428088, -41.92274056844709 ], [ 174.012991035991092, -41.910645228758533 ], [ 174.013081206103948, -41.910623404012711 ], [ 174.008941113775705, -41.901386530447326 ], [ 174.003143644526546, -41.889028487156075 ], [ 174.003436959786171, -41.888951674717248 ], [ 173.998306985765481, -41.877708629608435 ], [ 173.998556409328188, -41.877645076029701 ], [ 173.993320356865695, -41.866128373352865 ], [ 173.993541673836688, -41.866072162755053 ], [ 173.987978554694962, -41.853857778042489 ], [ 173.988343511945544, -41.853764885568161 ], [ 173.982866182586008, -41.841005270233183 ], [ 173.983170584905736, -41.840932216426303 ], [ 173.979647376165559, -41.832691932600426 ], [ 173.973417003326205, -41.819041164606901 ], [ 173.967260099486566, -41.806274897295914 ], [ 173.967435119665851, -41.806227655913233 ], [ 173.961776775697842, -41.794311564417953 ], [ 173.962198982335167, -41.794199313824386 ], [ 173.956872987411231, -41.78225615622717 ], [ 173.957185116855385, -41.782178193245464 ], [ 173.952074385533734, -41.770177774649447 ], [ 173.952173210174664, -41.770154192313242 ], [ 173.947516387542919, -41.75944503039883 ], [ 173.945096390817326, -41.754196383095135 ], [ 173.944898681250891, -41.754244522901466 ], [ 173.94244494247809, -41.748593416292458 ], [ 173.936369749120814, -41.735981962341846 ], [ 173.936907595095676, -41.735836633289559 ], [ 173.931151612348827, -41.722570372058762 ], [ 173.931483255546198, -41.722489626462746 ], [ 173.925995639947956, -41.709819839506515 ], [ 173.926121192776804, -41.709789311828715 ], [ 173.920634210714098, -41.697181890766885 ], [ 173.920882013761769, -41.697121323158164 ], [ 173.918627612076591, -41.691881342722048 ], [ 173.918510196623174, -41.691912111602001 ], [ 173.912731567215815, -41.679520784368798 ], [ 173.912723211262232, -41.679522849979165 ], [ 173.912567984492313, -41.67916993259638 ], [ 173.910287931265401, -41.674279248903659 ], [ 173.909654963411668, -41.672973774866954 ], [ 173.909676626168675, -41.672967870641145 ], [ 173.903852534368724, -41.660471060781468 ], [ 173.904295140285342, -41.660355083214782 ], [ 173.898817559168663, -41.647890946042253 ], [ 173.898965607185943, -41.647854350682572 ], [ 173.893687277255623, -41.635914446544817 ], [ 173.89392618413936, -41.635855018906028 ], [ 173.888805295879706, -41.624039658624284 ], [ 173.889037673562854, -41.623982966971347 ], [ 173.886283778586915, -41.61763986815879 ], [ 173.878595112395629, -41.600451937225877 ], [ 173.879022527712721, -41.600344244490906 ], [ 173.873698612968212, -41.587748753507448 ], [ 173.87400096697931, -41.587676734740498 ], [ 173.871439393652679, -41.58134867387389 ], [ 173.866137391380136, -41.569492318964805 ], [ 173.86607049546123, -41.569509609139274 ], [ 173.864441087130615, -41.565954066277321 ], [ 173.857367164278145, -41.551662174514952 ], [ 173.857833781515779, -41.551531881340047 ], [ 173.851643949203066, -41.53801462506717 ], [ 173.852076439455146, -41.537902849195788 ], [ 173.846259547121775, -41.524488043350871 ], [ 173.846569982603398, -41.524412038266732 ], [ 173.843564575594939, -41.517100197465957 ], [ 173.831031268532399, -41.521536315232808 ], [ 173.83093111794571, -41.521376465419465 ], [ 173.812861804939587, -41.527585200059733 ], [ 173.812759187724112, -41.527416499228217 ], [ 173.795192410566642, -41.533513847680894 ], [ 173.795154095988494, -41.533451504617503 ], [ 173.777411389865989, -41.539558006070372 ], [ 173.777354688576708, -41.539464978077426 ], [ 173.759914339210923, -41.545536423294301 ], [ 173.759804879708838, -41.545358911721856 ], [ 173.745844879340268, -41.550100029254047 ], [ 173.742581507251174, -41.551259489569055 ], [ 173.742554986433134, -41.551217347916584 ], [ 173.742026638470662, -41.551396786292081 ], [ 173.742015098571841, -41.551377606630815 ], [ 173.725084128206817, -41.557352867381908 ], [ 173.725006393696134, -41.55722856227171 ], [ 173.707556044089472, -41.563394968259857 ], [ 173.707420848724723, -41.563179056752546 ], [ 173.689915218377507, -41.569198031765751 ], [ 173.689881581487413, -41.569142841672694 ], [ 173.678180801261931, -41.573244392725591 ], [ 173.678193044016439, -41.573266528660774 ], [ 173.677508223809951, -41.573480103858977 ], [ 173.673060184822504, -41.575038819341586 ], [ 173.672970838141225, -41.574895042161323 ], [ 173.67032855635577, -41.575718900573996 ], [ 173.655671245782287, -41.580713862125464 ], [ 173.655590028325719, -41.580579466180843 ], [ 173.655446366847372, -41.580627867982301 ], [ 173.655310245635775, -41.580400027869423 ], [ 173.648758920706001, -41.582441224245187 ], [ 173.63096027574457, -41.588617142212449 ], [ 173.612358865600413, -41.595472107774079 ], [ 173.612370834830386, -41.595491575409149 ], [ 173.61128259647856, -41.595868596732259 ], [ 173.606503087912643, -41.597629149546663 ], [ 173.606455643796892, -41.597556568784157 ], [ 173.589747139853159, -41.603687602897438 ], [ 173.589555293181036, -41.603392975399409 ], [ 173.572074922600677, -41.609442357839136 ], [ 173.571965635935129, -41.609264426744886 ], [ 173.55596466945093, -41.614860361682275 ], [ 173.555836548503152, -41.614653988383459 ], [ 173.549204288992172, -41.616874480205986 ], [ 173.546728407929237, -41.617826399120162 ], [ 173.546773739747437, -41.617906321080568 ], [ 173.545276661245083, -41.618384470106868 ], [ 173.540953377867254, -41.620046233148486 ], [ 173.540795837260816, -41.619815433390343 ], [ 173.535375666433907, -41.621546062136396 ], [ 173.523549863401996, -41.625698571009615 ], [ 173.523359257636116, -41.625392911970209 ], [ 173.52082196190409, -41.626228683354299 ], [ 173.507196002214897, -41.63098298908654 ], [ 173.507058102150552, -41.630760469954225 ], [ 173.489994185781541, -41.636375643767579 ], [ 173.489921108606438, -41.636250624730849 ], [ 173.482278655723519, -41.638709622046008 ], [ 173.469498654521828, -41.643085424711686 ], [ 173.467258906318392, -41.643878711174033 ], [ 173.46731805729911, -41.643977397538357 ], [ 173.460250103673985, -41.646360720566811 ], [ 173.44385850950917, -41.652163024263764 ], [ 173.443714527708039, -41.651934156591722 ], [ 173.42680964330728, -41.657628621997183 ], [ 173.42672337360824, -41.657484541449442 ], [ 173.410395309196161, -41.662952342969383 ], [ 173.410356391578063, -41.662886972905433 ], [ 173.393878066139337, -41.668331663777934 ], [ 173.393786645557896, -41.668176058599535 ], [ 173.38430941422618, -41.671272145062346 ], [ 173.376168420433544, -41.674118220673485 ], [ 173.372266198877242, -41.675611347355868 ], [ 173.372399367949299, -41.675822409366674 ], [ 173.363027283644897, -41.679145677046058 ], [ 173.34874476444088, -41.684607206385536 ], [ 173.348543149471823, -41.684310853001897 ], [ 173.346787841166787, -41.684901438497995 ], [ 173.340413065282803, -41.687159949349812 ], [ 173.340487273341353, -41.687292906577731 ], [ 173.336568577828473, -41.688521760476462 ], [ 173.332230089734082, -41.690058335291731 ], [ 173.332137304987327, -41.68991113497372 ], [ 173.328538408662212, -41.69103935774416 ], [ 173.316056578817211, -41.695235091610769 ], [ 173.315913511526134, -41.69499595102436 ], [ 173.312017837346275, -41.696216462249097 ], [ 173.293919335597565, -41.702233216170534 ], [ 173.278604178694252, -41.707419397602116 ], [ 173.278675094347136, -41.707537705840544 ], [ 173.266961789409009, -41.711479465871768 ], [ 173.263015678954019, -41.712859014505582 ], [ 173.263048091653332, -41.712915711493423 ], [ 173.260670110118895, -41.713678926308454 ], [ 173.253816046405916, -41.716074423679856 ], [ 173.25372691967786, -41.715931246603034 ], [ 173.238119901460124, -41.72117819299946 ], [ 173.23798673034409, -41.720955791649068 ], [ 173.222178002244448, -41.72602363884134 ], [ 173.222170575074699, -41.726010632727458 ], [ 173.207128542885471, -41.730870611793954 ], [ 173.207114597512799, -41.730846385862243 ], [ 173.206281917997472, -41.73112154833678 ], [ 173.1772486036038, -41.741303009928806 ], [ 173.1772106192808, -41.741242219987363 ], [ 173.176797126330854, -41.741387694310198 ], [ 173.170916492346663, -41.743463190656989 ], [ 173.171189077651064, -41.743959992721251 ], [ 173.157559949174725, -41.748153309962888 ], [ 173.146694345424265, -41.751972634142064 ], [ 173.146443266899865, -41.751572012968694 ], [ 173.130044336169846, -41.756612533703134 ], [ 173.129983680896714, -41.756501858355328 ], [ 173.129132552978888, -41.756765314231231 ], [ 173.112890057737104, -41.762030209159988 ], [ 173.112932056531719, -41.762098411066368 ], [ 173.097662247642745, -41.767368122293327 ], [ 173.097727135742076, -41.767477114686514 ], [ 173.086134346687146, -41.771344558974427 ], [ 173.082514749991702, -41.772592763157334 ], [ 173.082620655265828, -41.772780373949814 ], [ 173.074753102963285, -41.775268789451083 ], [ 173.072523574629543, -41.776037338120872 ], [ 173.072490868444334, -41.775984172502213 ], [ 173.067236500186226, -41.777645520068916 ], [ 173.057081513620005, -41.781029622397334 ], [ 173.05699431388004, -41.780882998049805 ], [ 173.041627163967576, -41.785738112378063 ], [ 173.041612873436634, -41.78571276830413 ], [ 173.028175745725576, -41.790093906279324 ], [ 173.017280538826355, -41.793745080829893 ], [ 173.017357032396632, -41.793870567455279 ], [ 173.002918311721714, -41.798798240414911 ], [ 173.00299589880828, -41.798929261266061 ], [ 172.992846532332976, -41.802293891104263 ], [ 172.990234469292972, -41.803208719737491 ], [ 172.990209027576839, -41.803168049046789 ], [ 172.987625847853252, -41.804024119981158 ], [ 172.987704326246075, -41.804163381026903 ], [ 172.980820191841303, -41.806334943872862 ], [ 172.976853681900451, -41.807687109158813 ], [ 172.976806077003516, -41.807608933487579 ], [ 172.962291262652684, -41.81241575940421 ], [ 172.962172227165979, -41.812214530002855 ], [ 172.960629458643552, -41.812700771198699 ], [ 172.958154747371111, -41.813515749457153 ], [ 172.95816607522039, -41.813535092263471 ], [ 172.94394235509921, -41.818195856698999 ], [ 172.943962526417891, -41.818230735342681 ], [ 172.936233801450527, -41.820731576265281 ], [ 172.931907480508556, -41.822155005943443 ], [ 172.931898840854473, -41.822140312434861 ], [ 172.917377200414336, -41.826894069475863 ], [ 172.917345751225582, -41.826840310401046 ], [ 172.916034265261743, -41.827264309752728 ], [ 172.916045255823462, -41.827283126228338 ], [ 172.902284477351543, -41.831778400776592 ], [ 172.902331236571371, -41.831860323441013 ], [ 172.889072971808218, -41.836092095525785 ], [ 172.875228972435707, -41.840610049550968 ], [ 172.875194763287965, -41.840551417788546 ], [ 172.861932598992468, -41.844848787698311 ], [ 172.85544914095297, -41.846962989126553 ], [ 172.855505783836975, -41.821788463395478 ], [ 172.884404563253042, -41.821821179763631 ], [ 172.884462832530289, -41.789396140495647 ], [ 172.913347087241959, -41.789421557822493 ], [ 172.913390717612998, -41.75699630608942 ], [ 172.91343427646234, -41.724570870686051 ], [ 172.942289500015306, -41.724588984895959 ], [ 172.971144744719766, -41.724599853429467 ], [ 173.0, -41.724603476275206 ], [ 173.0, -41.692177820340866 ], [ 173.028840759432541, -41.692174201593261 ], [ 173.028826287335306, -41.659748366164436 ], [ 173.028811838943653, -41.627322347165865 ], [ 173.057623667371445, -41.627311515478979 ], [ 173.05759481792964, -41.594885325191591 ], [ 173.086392200654302, -41.594867292822322 ], [ 173.115189551890865, -41.594842047531515 ], [ 173.115131947630118, -41.562415722691462 ], [ 173.143914855965875, -41.562383301242328 ], [ 173.143842968645458, -41.529956829542648 ], [ 173.143771198960081, -41.497530174270331 ], [ 173.172525323947355, -41.497490637791493 ], [ 173.201279386314354, -41.497443912958673 ], [ 173.230033375624657, -41.497389999820207 ], [ 173.258787281442181, -41.497328898431931 ], [ 173.287541093330731, -41.497260608857054 ], [ 173.316294800854706, -41.497185131166233 ], [ 173.345048393578509, -41.497102465437592 ], [ 173.344876432797577, -41.46467611091623 ], [ 173.373615571283921, -41.464586358976817 ], [ 173.402354574354945, -41.464489427316636 ], [ 173.431093431595571, -41.464385316035916 ], [ 173.459832132591089, -41.464274025242332 ], [ 173.488570666927131, -41.464155555050944 ], [ 173.517309024189643, -41.464029905584312 ], [ 173.546047193965109, -41.463897076972302 ], [ 173.545775381490699, -41.431471420672928 ], [ 173.574499049990493, -41.431331571603401 ], [ 173.603222510568742, -41.431184551799525 ], [ 173.631945752832848, -41.431030361413278 ], [ 173.660668766390472, -41.430869000603948 ], [ 173.660340280811653, -41.398443841764532 ], [ 173.689048776958657, -41.398275501575327 ], [ 173.717757024084847, -41.398099999423629 ], [ 173.746465011819225, -41.397917335490618 ], [ 173.775172729791336, -41.397727509964909 ], [ 173.803880167631206, -41.397530523042469 ], [ 173.832587314969857, -41.397326374926671 ], [ 173.832173843887574, -41.364902296405695 ], [ 173.860866438473749, -41.364691226661499 ], [ 173.889558722405866, -41.364473004262422 ], [ 173.918250685336318, -41.364247629433542 ], [ 173.946942316918097, -41.364015102407365 ], [ 173.97563360680499, -41.363775423423782 ], [ 174.004324544651467, -41.363528592730027 ], [ 174.033015120113078, -41.36327461058071 ], [ 174.061705322845853, -41.363013477237807 ], [ 174.090395142506907, -41.362745192970692 ], [ 174.090936857888693, -41.395166825397787 ], [ 174.06223279155833, -41.395435413882865 ], [ 174.062761123801948, -41.427857161693417 ], [ 174.06329032120027, -41.460278720632999 ], [ 174.063820385381433, -41.492700090665338 ], [ 174.092567331775427, -41.492430587729935 ] ] ] ] } }
]
}
