{
    "type": "FeatureCollection",
    "name": "Marlborough_2026-2027 - Captured_Area",
    "crs": {
        "type": "name",
        "properties": {
            "name": "urn:ogc:def:crs:OGC:1.3:CRS84"
        }
    },
    "xy_coordinate_resolution": 1e-15,
    "features": [
        {
            "type": "Feature",
            "properties": {
                "Name": "Wairau Awatere Rural",
                "Project": "PGRM3353",
                "layer": "RuralArea",
                "path": "Y:/Projects/MARLBOROUGH DISTRICT COUNCIL/PGRM3353 – Marlborough Wairau Awatere 2026-27 Rural Orthos/07_Client_AOIs/GIS_Shapefiles/RuralArea.shp",
                "SN_No": null,
                "Company_Name": null,
                "Description": null,
                "Area": 8758.8044533444881,
                "Percentage_Coverage": 100.0
            },
            "geometry": {
                "type": "MultiPolygon",
                "coordinates": [
                    [
                        [
                            [
                                174.06329032120027,
                                -41.460278720633006
                            ],
                            [
                                174.063820385381433,
                                -41.492700090665338
                            ],
                            [
                                174.092567331775427,
                                -41.492430587729935
                            ],
                            [
                                174.121313881787216,
                                -41.492153901675998
                            ],
                            [
                                174.121873494008838,
                                -41.524574463791794
                            ],
                            [
                                174.150633975891481,
                                -41.524290273212827
                            ],
                            [
                                174.151208867299346,
                                -41.556710323727998
                            ],
                            [
                                174.17998329254479,
                                -41.556418612318673
                            ],
                            [
                                174.180573511136998,
                                -41.588838142406921
                            ],
                            [
                                174.181164697368359,
                                -41.621257482185079
                            ],
                            [
                                174.181756853067469,
                                -41.653676631615184
                            ],
                            [
                                174.182349980067784,
                                -41.686095590659463
                            ],
                            [
                                174.211181653998949,
                                -41.685795324184788
                            ],
                            [
                                174.211790232769829,
                                -41.718213752827445
                            ],
                            [
                                174.240635941451245,
                                -41.717905907327584
                            ],
                            [
                                174.269481195698461,
                                -41.717590823100771
                            ],
                            [
                                174.298325984958922,
                                -41.717268500474574
                            ],
                            [
                                174.298979064468057,
                                -41.749685668219897
                            ],
                            [
                                174.299633215967788,
                                -41.782102644063507
                            ],
                            [
                                174.270759403333528,
                                -41.78242569683399
                            ],
                            [
                                174.271400081447126,
                                -41.814842846353535
                            ],
                            [
                                174.242511253762956,
                                -41.815159001745343
                            ],
                            [
                                174.243138411888651,
                                -41.847576317415154
                            ],
                            [
                                174.214234554133299,
                                -41.847885559032406
                            ],
                            [
                                174.214848145551912,
                                -41.880303033304173
                            ],
                            [
                                174.185929242713172,
                                -41.880605344732942
                            ],
                            [
                                174.157009902417713,
                                -41.88090037575752
                            ],
                            [
                                174.157595257662422,
                                -41.913318334843936
                            ],
                            [
                                174.128660867123983,
                                -41.913606410706102
                            ],
                            [
                                174.129232537032124,
                                -41.946024505321432
                            ],
                            [
                                174.10028308129634,
                                -41.946305609569343
                            ],
                            [
                                174.10084101876447,
                                -41.97872383208049
                            ],
                            [
                                174.071876482886609,
                                -41.978997948244192
                            ],
                            [
                                174.042911549920916,
                                -41.979264758085918
                            ],
                            [
                                174.042382959429887,
                                -41.946845924428175
                            ],
                            [
                                174.013432314699685,
                                -41.947105134474469
                            ],
                            [
                                173.984481295040041,
                                -41.947357045901605
                            ],
                            [
                                173.955529911153377,
                                -41.947601658446303
                            ],
                            [
                                173.926578173743081,
                                -41.947838971852917
                            ],
                            [
                                173.89762609351331,
                                -41.948068985873391
                            ],
                            [
                                173.868673681169014,
                                -41.948291700267355
                            ],
                            [
                                173.839720947415913,
                                -41.948507114801984
                            ],
                            [
                                173.810767902960492,
                                -41.948715229252173
                            ],
                            [
                                173.811179077748221,
                                -41.981136177347622
                            ],
                            [
                                173.782211053544643,
                                -41.981337218651191
                            ],
                            [
                                173.7532427395019,
                                -41.981530951186066
                            ],
                            [
                                173.724274146349018,
                                -41.981717374749572
                            ],
                            [
                                173.695305284815646,
                                -41.981896489146713
                            ],
                            [
                                173.666336165632117,
                                -41.982068294190114
                            ],
                            [
                                173.666674491907571,
                                -42.014490109513531
                            ],
                            [
                                173.637690419350207,
                                -42.014654791077866
                            ],
                            [
                                173.608706110153946,
                                -42.014812154669819
                            ],
                            [
                                173.609015531313872,
                                -42.047234148198257
                            ],
                            [
                                173.580016264700646,
                                -42.047384363343923
                            ],
                            [
                                173.580311439305547,
                                -42.07980634107281
                            ],
                            [
                                173.551297200964171,
                                -42.079949391226052
                            ],
                            [
                                173.52228275746063,
                                -42.080085106375307
                            ],
                            [
                                173.522548856632653,
                                -42.112507213778159
                            ],
                            [
                                173.493519437525379,
                                -42.112635738935801
                            ],
                            [
                                173.493771169287442,
                                -42.145057806420283
                            ],
                            [
                                173.494023315669295,
                                -42.177479688809555
                            ],
                            [
                                173.494275877466265,
                                -42.209901386081675
                            ],
                            [
                                173.465201783458525,
                                -42.210022979079234
                            ],
                            [
                                173.465439882248717,
                                -42.242444628628036
                            ],
                            [
                                173.43635073458293,
                                -42.24255898208223
                            ],
                            [
                                173.407261423378912,
                                -42.242665958457195
                            ],
                            [
                                173.378171959537383,
                                -42.242765557640332
                            ],
                            [
                                173.349082353959602,
                                -42.242857779526801
                            ],
                            [
                                173.349261227114511,
                                -42.27527971091709
                            ],
                            [
                                173.320156585489855,
                                -42.275364651285287
                            ],
                            [
                                173.291051823701565,
                                -42.275442205834054
                            ],
                            [
                                173.29120113199312,
                                -42.307864136256597
                            ],
                            [
                                173.262081330734389,
                                -42.307934384187014
                            ],
                            [
                                173.262215930435815,
                                -42.340356209571453
                            ],
                            [
                                173.262350752203986,
                                -42.372777850616153
                            ],
                            [
                                173.233200917677124,
                                -42.372840846317892
                            ],
                            [
                                173.233320957502627,
                                -42.405262374158482
                            ],
                            [
                                173.20415603046888,
                                -42.405318021541142
                            ],
                            [
                                173.204261239075009,
                                -42.437739427924974
                            ],
                            [
                                173.175081205455683,
                                -42.437787710243548
                            ],
                            [
                                173.175171533443176,
                                -42.470208986892914
                            ],
                            [
                                173.145976379174328,
                                -42.470249887384419
                            ],
                            [
                                173.116781169648391,
                                -42.470283351481939
                            ],
                            [
                                173.087585915916549,
                                -42.470309379150052
                            ],
                            [
                                173.087631154795844,
                                -42.502730584937197
                            ],
                            [
                                173.058420788318728,
                                -42.502749197140659
                            ],
                            [
                                173.029210399695813,
                                -42.502760364470618
                            ],
                            [
                                173.029195320040884,
                                -42.470339125095819
                            ],
                            [
                                173.0,
                                -42.470342843341989
                            ],
                            [
                                172.970804679959116,
                                -42.470339125095819
                            ],
                            [
                                172.97081973474809,
                                -42.437917701651017
                            ],
                            [
                                172.970834764719058,
                                -42.405496094153392
                            ],
                            [
                                172.941669540447037,
                                -42.405484964571031
                            ],
                            [
                                172.912504338192917,
                                -42.405466415280173
                            ],
                            [
                                172.912549353710602,
                                -42.37304465723215
                            ],
                            [
                                172.912594295061183,
                                -42.340622715132305
                            ],
                            [
                                172.883459111258901,
                                -42.3405968047214
                            ],
                            [
                                172.854323971322771,
                                -42.340563491382795
                            ],
                            [
                                172.825188886219109,
                                -42.340522775151634
                            ],
                            [
                                172.825278620302242,
                                -42.308100761799658
                            ],
                            [
                                172.825368206622926,
                                -42.275678564317523
                            ],
                            [
                                172.825457645465036,
                                -42.243256182723947
                            ],
                            [
                                172.796367418410938,
                                -42.243208226383956
                            ],
                            [
                                172.796471591681467,
                                -42.210785714834849
                            ],
                            [
                                172.767396322428084,
                                -42.210730443197832
                            ],
                            [
                                172.767515181294073,
                                -42.178307809922956
                            ],
                            [
                                172.73845485592588,
                                -42.178245239632361
                            ],
                            [
                                172.709394628310321,
                                -42.178175308351612
                            ],
                            [
                                172.709542956261629,
                                -42.145752640518317
                            ],
                            [
                                172.709691040300811,
                                -42.113329788382288
                            ],
                            [
                                172.709838880894466,
                                -42.080906751963944
                            ],
                            [
                                172.709986478507886,
                                -42.048483531283964
                            ],
                            [
                                172.710133833605056,
                                -42.016060126363243
                            ],
                            [
                                172.739120143638104,
                                -42.016129663627176
                            ],
                            [
                                172.768106550493201,
                                -42.016191881374553
                            ],
                            [
                                172.768224241912634,
                                -41.983768143372487
                            ],
                            [
                                172.79719602376386,
                                -41.983822979511984
                            ],
                            [
                                172.797298834996951,
                                -41.951398995497073
                            ],
                            [
                                172.797401477434391,
                                -41.918974827516628
                            ],
                            [
                                172.826343984455718,
                                -41.919022244936059
                            ],
                            [
                                172.826431819545604,
                                -41.886597839416659
                            ],
                            [
                                172.82651951050272,
                                -41.85417325002831
                            ],
                            [
                                172.855432827736337,
                                -41.854213281890082
                            ],
                            [
                                172.855505783836946,
                                -41.821788463395485
                            ],
                            [
                                172.884404563253042,
                                -41.821821179763639
                            ],
                            [
                                172.884462832530289,
                                -41.789396140495654
                            ],
                            [
                                172.913347087241959,
                                -41.7894215578225
                            ],
                            [
                                172.913390717612998,
                                -41.75699630608942
                            ],
                            [
                                172.91343427646234,
                                -41.724570870686051
                            ],
                            [
                                172.942289500015306,
                                -41.724588984895966
                            ],
                            [
                                172.971144744719766,
                                -41.724599853429467
                            ],
                            [
                                173.0,
                                -41.724603476275206
                            ],
                            [
                                173.0,
                                -41.692177820340873
                            ],
                            [
                                173.028840759432541,
                                -41.692174201593261
                            ],
                            [
                                173.028826287335306,
                                -41.65974836616445
                            ],
                            [
                                173.028811838943653,
                                -41.627322347165887
                            ],
                            [
                                173.057623667371445,
                                -41.627311515478979
                            ],
                            [
                                173.05759481792964,
                                -41.594885325191584
                            ],
                            [
                                173.086392200654302,
                                -41.594867292822322
                            ],
                            [
                                173.115189551890865,
                                -41.594842047531522
                            ],
                            [
                                173.115131947630118,
                                -41.562415722691462
                            ],
                            [
                                173.143914855965875,
                                -41.562383301242328
                            ],
                            [
                                173.143842968645458,
                                -41.529956829542648
                            ],
                            [
                                173.143771198960081,
                                -41.497530174270331
                            ],
                            [
                                173.172525323947355,
                                -41.497490637791493
                            ],
                            [
                                173.201279386314354,
                                -41.497443912958673
                            ],
                            [
                                173.230033375624657,
                                -41.497389999820221
                            ],
                            [
                                173.258787281442153,
                                -41.497328898431931
                            ],
                            [
                                173.287541093330731,
                                -41.497260608857054
                            ],
                            [
                                173.316294800854706,
                                -41.497185131166233
                            ],
                            [
                                173.34504839357848,
                                -41.497102465437592
                            ],
                            [
                                173.344876432797577,
                                -41.46467611091623
                            ],
                            [
                                173.373615571283921,
                                -41.464586358976817
                            ],
                            [
                                173.402354574354945,
                                -41.464489427316636
                            ],
                            [
                                173.431093431595571,
                                -41.464385316035916
                            ],
                            [
                                173.459832132591089,
                                -41.464274025242332
                            ],
                            [
                                173.488570666927103,
                                -41.464155555050951
                            ],
                            [
                                173.517309024189643,
                                -41.464029905584312
                            ],
                            [
                                173.546047193965109,
                                -41.463897076972302
                            ],
                            [
                                173.545775381490699,
                                -41.431471420672942
                            ],
                            [
                                173.574499049990493,
                                -41.431331571603401
                            ],
                            [
                                173.603222510568742,
                                -41.431184551799539
                            ],
                            [
                                173.63194575283282,
                                -41.431030361413278
                            ],
                            [
                                173.660668766390472,
                                -41.430869000603948
                            ],
                            [
                                173.660340280811653,
                                -41.398443841764525
                            ],
                            [
                                173.689048776958657,
                                -41.398275501575327
                            ],
                            [
                                173.717757024084847,
                                -41.398099999423629
                            ],
                            [
                                173.746465011819225,
                                -41.397917335490618
                            ],
                            [
                                173.775172729791308,
                                -41.397727509964902
                            ],
                            [
                                173.803880167631206,
                                -41.397530523042469
                            ],
                            [
                                173.832587314969857,
                                -41.397326374926678
                            ],
                            [
                                173.832173843887574,
                                -41.364902296405695
                            ],
                            [
                                173.860866438473749,
                                -41.364691226661506
                            ],
                            [
                                173.889558722405866,
                                -41.364473004262415
                            ],
                            [
                                173.918250685336318,
                                -41.364247629433542
                            ],
                            [
                                173.946942316918097,
                                -41.364015102407365
                            ],
                            [
                                173.975633606804962,
                                -41.363775423423782
                            ],
                            [
                                174.004324544651467,
                                -41.363528592730027
                            ],
                            [
                                174.033015120113049,
                                -41.36327461058071
                            ],
                            [
                                174.061705322845853,
                                -41.363013477237807
                            ],
                            [
                                174.090395142506907,
                                -41.362745192970692
                            ],
                            [
                                174.090936857888693,
                                -41.395166825397787
                            ],
                            [
                                174.06223279155833,
                                -41.395435413882865
                            ],
                            [
                                174.06276112380192,
                                -41.427857161693431
                            ],
                            [
                                174.06329032120027,
                                -41.460278720633006
                            ]
                        ]
                    ]
                ]
            }
        }
    ]
}