{
    "type": "FeatureCollection",
    "name": "Marlborough_2026-2027 - Imagery_Centres",
    "crs": {
        "type": "name",
        "properties": {
            "name": "urn:ogc:def:crs:OGC:1.3:CRS84"
        }
    },
    "features": [
        {
            "type": "Feature",
            "properties": {
                "Name": "Wairau Awatere Rural",
                "Project": "PGRM3353",
                "Proj_Name": "Marlborough Wairau Awatere 2026-27 Rural",
                "Survey_Typ": "Imagery",
                "OrthoGSD_m": "0.25",
                "Area": 8758.80
                
            },
            "geometry": {
                "type": "Point",
                "coordinates": [
                    173.445460886544396,
                    -41.860434292907279
                ]
            }
        }
    ]
}